Results
*******************************************************************************
 Revised: Oct 03, 2018             Pallene / (Saturn)                       633

 Radii (IAU2015): 2.88 x 2.08 x 1.8  km

 Solution fit to all data (including Cassini) through September, 2018.
*******************************************************************************


*******************************************************************************
Ephemeris / API_USER Wed Apr 22 07:26:36 2026 Pasadena, USA      / Horizons    
*******************************************************************************
Target body name: Pallene (633)                   {source: sat415_merged_DE437}
Center body name: Earth (399)                     {source: sat415_merged_DE437}
Center-site name: GEOCENTRIC
*******************************************************************************
Start time      : A.D. 2020-Jan-01 00:00:00.0000 UT      
Stop  time      : A.D. 2020-Dec-20 00:00:00.0000 UT      
Step-size       : 1440 minutes
*******************************************************************************
Target pole/equ : undefined
Target radii    : 2.88, 2.08, 1.8 km              {Equator_a, b, pole_c}       
Center geodetic : 0.0, 0.0, -6378.137             {E-lon(deg),Lat(deg),Alt(km)}
Center cylindric: 0.0, 0.0, 0.0                   {E-lon(deg),Dxy(km),Dz(km)}
Center pole/equ : ITRF93                          {East-longitude positive}
Center radii    : 6378.137, 6378.137, 6356.752 km {Equator_a, b, pole_c}       
Target primary  : Saturn
Vis. interferer : MOON (R_eq= 1737.400) km        {source: DE441}
Rel. light bend : Sun                             {source: sat415_merged_DE437}
Rel. lght bnd GM: 1.3271E+11 km^3/s^2                                          
Atmos refraction: NO (AIRLESS)
RA format       : HMS
Time format     : CAL 
Calendar mode   : Mixed Julian/Gregorian
EOP file        : eop.260421.p260718                                           
EOP coverage    : DATA-BASED 1962-JAN-20 TO 2026-APR-21. PREDICTS-> 2026-JUL-17
Units conversion: 1 au= 149597870.700 km, c= 299792.458 km/s, 1 day= 86400.0 s 
Table cut-offs 1: Elevation (-90.0deg=NO ),Airmass (>38.000=NO), Daylight (NO )
Table cut-offs 2: Solar elongation (  0.0,180.0=NO ),Local Hour Angle( 0.0=NO )
Table cut-offs 3: RA/DEC angular rate (     0.0=NO )                           
**************************************************************************************************************************
 Date__(UT)__HR:MN     R.A._____(ICRF)_____DEC    APmag   S-brt             delta      deldot     S-O-T /r     S-T-O  Cnst
**************************************************************************************************************************
$$SOE
 2020-Dec-14 00:00     20 06 27.67 -20 38 34.4     n.a.    n.a.  10.7548903920554  24.6970977   37.2154 /T    3.4217   Sgr
 2020-Dec-15 00:00     20 06 55.09 -20 37 24.1     n.a.    n.a.  10.7645750225666  14.4581382   36.3065 /T    3.3502   Sgr
 2020-Dec-16 00:00     20 07 22.50 -20 36 06.3     n.a.    n.a.  10.7749026655414   5.8082137   35.3978 /T    3.2760   Cap
 2020-Dec-17 00:00     20 07 49.00 -20 34 42.5     n.a.    n.a.  10.7854572567718   4.3291228   34.4858 /T    3.1997   Cap
 2020-Dec-18 00:00     20 08 14.45 -20 33 18.0     n.a.    n.a.  10.7955177059043  10.8252142   33.5697 /T    3.1228   Cap
 2020-Dec-19 00:00     20 08 39.51 -20 31 57.9     n.a.    n.a.  10.8045463746562  20.6282598   32.6518 /T    3.0467   Cap
 2020-Dec-20 00:00     20 09 05.22 -20 30 43.7     n.a.    n.a.  10.8125520373012  26.9233016   31.7359 /T    2.9718   Cap
